STARLINK-33598          
1 62771U 25015P   25149.43524502 -.00000813  00000+0 -15341-4 0  9993
2 62771  53.1588 202.5640 0000858  75.2257 284.8839 15.30184206 20951
STARLINK-33600          
1 62772U 25015Q   25149.41002762 -.00000322  00000+0  12537-5 0  9990
2 62772  53.1588 203.1229 0001207  69.3693 290.7438 15.30185725 20957
STARLINK-33567          
1 62773U 25015R   25149.18558721  .00001938  00000+0  77507-4 0  9996
2 62773  53.1600 203.8526 0001429 109.2017 250.9138 15.30211247 20921
STARLINK-33574          
1 62774U 25015S   25149.43945846  .00000423  00000+0  26394-4 0  9999
2 62774  53.1597 202.5944 0001094  78.5429 281.5695 15.30198985 20684
STARLINK-33576          
1 62775U 25015T   25149.13821621 -.00000478  00000+0 -40266-5 0  9998
2 62775  53.1599 204.2723 0001291  81.6298 278.4849 15.30187221 20855
STARLINK-33570          
1 62776U 25015U   25149.43840425  .00000541  00000+0  30409-4 0  9991
2 62776  53.1597 202.5867 0001141  82.9109 277.2021 15.30192132 20905
STARLINK-33591          
1 62777U 25015V   25149.13504924 -.00000923  00000+0 -19066-4 0  9992
2 62777  53.1598 204.2503 0001125  83.0816 277.0312 15.30187982 20911
STARLINK-33573          
1 62778U 25015W   25149.43207371  .00000394  00000+0  25436-4 0  9990
2 62778  53.1586 202.5423 0001139  74.7037 285.4090 15.30191010 20955
STARLINK-33568          
1 62779U 25015X   25149.12872203 -.00000990  00000+0 -21331-4 0  9993
2 62779  53.1594 204.2103 0001016  98.1937 261.9179 15.30184739 20757
STARLINK-33593          
1 62780U 25015Y   25149.43629373 -.00000141  00000+0  73779-5 0  9998
2 62780  53.1588 202.5703 0000995  80.5168 279.5945 15.30190544 20965
STARLINK-33588          
1 62781U 25015Z   25148.86902579  .00000378  00000+0  24895-4 0  9992
2 62781  53.1598 203.2388 0001155  94.6393 265.4739 15.30191698 20909
STARLINK-33585          
1 62782U 25015AA  25149.42257097  .00001508  00000+0  63021-4 0  9994
2 62782  53.1595 202.4902 0001321  75.6924 284.4223 15.30198999 20689
STARLINK-33582          
1 62783U 25015AB  25149.44579380 -.00000679  00000+0 -10819-4 0  9996
2 62783  53.1593 202.6305 0000897  90.1310 269.9794 15.30188730 20903
STARLINK-33581          
1 62784U 25015AC  25149.41108436 -.00000457  00000+0 -33186-5 0  9991
2 62784  53.1591 203.1275 0001282  62.9278 297.1854 15.30188003 20951
STARLINK-32883          
1 62806U 25018A   25149.38409021 -.00001288  00000+0 -22242-4 0  9992
2 62806  53.1600 190.6233 0001121  84.8023 275.3110 15.39607018 20273
STARLINK-32886          
1 62807U 25018B   25148.83225730  .00000154  00000+0  13822-4 0  9998
2 62807  53.1594 192.8636 0001134  88.4344 271.6791 15.39613964 19568
STARLINK-32848          
1 62808U 25018C   25149.58334491 -.01467142  00000+0 -50660-1 0  9992
2 62808  53.1590 189.2206 0001052  81.9689 176.4214 15.32723539  4353
STARLINK-32787          
1 62809U 25018D   25149.10119880  .00000364  00000+0  19091-4 0  9996
2 62809  53.1603 191.6989 0001256  88.2964 271.8185 15.39619109 19599
STARLINK-32851          
1 62810U 25018E   25149.11015502 -.00000489  00000+0 -22415-5 0  9990
2 62810  53.1599 191.7581 0001354  79.5795 280.5362 15.39611609 19599
STARLINK-32847          
1 62811U 25018F   25149.39329287 -.00002580  00000+0 -54581-4 0  9991
2 62811  53.1588 189.9632 0000998 134.0095 226.0992 15.39597367 20586
STARLINK-32837          
1 62812U 25018G   25149.37479461 -.00000860  00000+0 -11534-4 0  9990
2 62812  53.1605 190.5654 0001343  80.3051 279.8105 15.39611101 20584
STARLINK-32855          
1 62813U 25018H   25149.40719986 -.00000549  00000+0 -37494-5 0  9992
2 62813  53.1590 190.0524 0001028  90.4588 269.6535 15.39620673 20551
STARLINK-32843          
1 62814U 25018J   25149.66668981 -.01145852  00000+0 -36261-1 0  9994
2 62814  53.1586 189.0115 0001121  74.3498 193.0263 15.35190188 20597
STARLINK-32845          
1 62815U 25018K   25149.41185634 -.00000955  00000+0 -13894-4 0  9990
2 62815  53.1612 190.0819 0001398  94.3949 265.7216 15.39609148 19644
STARLINK-32854          
1 62816U 25018L   25149.37943245 -.00000511  00000+0 -27964-5 0  9998
2 62816  53.1598 190.5894 0001132  75.2466 284.8665 15.39615855 20446
STARLINK-32824          
1 62817U 25018M   25149.66668981 -.01506213  00000+0 -51607-1 0  9990
2 62817  53.1594 188.6711 0001074  62.2914  15.9822 15.33056169 20638
STARLINK-32853          
1 62818U 25018N   25149.39757515 -.00000030  00000+0  92345-5 0  9995
2 62818  53.1595 189.9914 0001110  99.2891 260.8240 15.39617986 19655
STARLINK-32856          
1 62819U 25018P   25148.84585209 -.00000549  00000+0 -37344-5 0  9998
2 62819  53.1607 192.9485 0001220  84.7601 275.3543 15.39613141 19563
STARLINK-32844          
1 62820U 25018Q   25149.66668981 -.00011091  00000+0 -36267-3 0  9995
2 62820  53.1571 188.8800 0001077  85.3442 246.9004 15.30218772 20627
STARLINK-32782          
1 62821U 25018R   25149.40704681 -.00023511  00000+0 -58296-3 0  9992
2 62821  53.1588 190.0483 0004313  14.6629 345.4500 15.39431576 20507
STARLINK-32842          
1 62822U 25018S   25148.44707586  .00000862  00000+0  31525-4 0  9992
2 62822  53.1601 194.7239 0001240  85.4592 274.6554 15.39616546 19507
STARLINK-32823          
1 62823U 25018T   25149.59303405 -.00051902  00000+0 -13139-2 0  9994
2 62823  53.1596 189.0770 0000675   0.3314 359.7691 15.39214331 20580
STARLINK-32852          
1 62824U 25018U   25148.84618665 -.00000405  00000+0 -15484-6 0  9990
2 62824  53.1601 192.9505 0001286  76.8917 283.2231 15.39614904 19560
STARLINK-32825          
1 62825U 25018V   25149.40255747  .00000447  00000+0  21160-4 0  9992
2 62825  53.1596 190.0228 0001234  97.9156 262.1988 15.39618633 20589
STARLINK-32704          
1 62826U 25018W   25149.37909947 -.00000197  00000+0  50606-5 0  9998
2 62826  53.1595 190.5887 0001096  80.8725 279.2404 15.39611503 20574
STARLINK-32838          
1 62827U 25018X   25149.91668981 -.01304293  00000+0 -34553-1 0  9994
2 62827  53.1583 155.3725 0001218  89.2846 180.2980 15.41005165 20872
STARLINK-32727          
1 62828U 25018Y   25149.91668981 -.00021763  00000+0 -53556-3 0  9998
2 62828  53.1569 187.8492 0001137  90.4707 114.0235 15.39624197 20651
STARLINK-11548 [DTC]    
1 62829U 25019A   25149.21634349 -.00000116  00000+0  25864-5 0  9995
2 62829  43.0002 220.4119 0001192 273.8016  86.2716 15.70829325 19144
STARLINK-11480 [DTC]    
1 62830U 25019B   25149.23757870 -.00002744  00000+0 -17898-4 0  9991
2 62830  42.9992 220.5789 0001597 268.4206  91.6479 15.70839339 19148
STARLINK-11559 [DTC]    
1 62831U 25019C   25149.20585219 -.00000552  00000+0 -80705-6 0  9999
2 62831  43.0007 221.2229 0001454 283.0150  77.0555 15.70828849 19134
STARLINK-11549 [DTC]    
1 62832U 25019D   25149.50784150 -.00001827  00000+0 -10749-4 0  9993
2 62832  43.0011 219.1756 0001407 267.5901  92.4805 15.70835320 19186
STARLINK-11554 [DTC]    
1 62833U 25019E   25149.51315000 -.00000783  00000+0 -26098-5 0  9994
2 62833  43.0016 219.2181 0001610 274.5761  85.4923 15.70829505 20120
STARLINK-11520 [DTC]    
1 62834U 25019F   25149.66673316 -.00000118  00000+0  25686-5 0  9991
2 62834  43.0006 217.7702 0001096 267.5001  92.5742 15.70831423 20174
STARLINK-11546 [DTC]    
1 62835U 25019G   25149.46549645 -.00000624  00000+0 -13681-5 0  9992
2 62835  42.9994 219.7295 0001726 282.8452  77.2223 15.70830546 19175
STARLINK-11533 [DTC]    
1 62836U 25019H   25149.24288828  .00000025  00000+0  36845-5 0  9992
2 62836  43.0006 220.6245 0000904 277.7958  82.2807 15.70831822 20072
STARLINK-11557 [DTC]    
1 62837U 25019J   25149.22696404  .00000218  00000+0  51956-5 0  9998
2 62837  42.9991 220.4926 0001256 272.0182  88.0542 15.70827077 20084
STARLINK-11556 [DTC]    
1 62838U 25019K   25149.22257038 -.00001241  00000+0 -61872-5 0  9992
2 62838  43.0004 220.4602 0000852 277.6193  82.4577 15.70824111 20089
STARLINK-11524 [DTC]    
1 62839U 25019L   25149.51846951 -.00001187  00000+0 -57743-5 0  9994
2 62839  42.9972 219.2580 0000234 192.1269 167.9593 15.70825439 19182
STARLINK-11551 [DTC]    
1 62840U 25019M   25149.23224654  .00005024  00000+0  42583-4 0  9992
2 62840  42.9996 220.5348 0001309 273.8926  86.1792 15.70861716 19145
STARLINK-11531 [DTC]    
1 62841U 25019N   25149.62969639 -.00000075  00000+0  29131-5 0  9992
2 62841  43.0018 218.3642 0001521 272.3593  87.7100 15.70830977 20142
STARLINK-32755          
1 62842U 25019P   25149.27804923 -.00000948  00000+0 -15428-4 0  9991
2 62842  43.0011 249.1571 0001683 277.9776  82.0889 15.40691074 18826
STARLINK-32797          
1 62843U 25019Q   25149.27134778  .00002101  00000+0  85875-4 0  9990
2 62843  43.0020 255.1562 0001084 275.4527  84.6200 15.27572086 18759
STARLINK-32794          
1 62844U 25019R   25149.62398100 -.00000313  00000+0 -18539-5 0  9990
2 62844  43.0003 253.4978 0001156 269.9722  90.0997 15.27572049 19392
STARLINK-32807          
1 62845U 25019S   25149.71616777  .00000737  00000+0  24904-4 0  9994
2 62845  42.9970 246.4199 0001016 121.2780 238.8176 15.40692618 19863
STARLINK-32804          
1 62846U 25019T   25149.27906534  .00015153  00000+0  56031-3 0  9992
2 62846  42.9999 255.2151 0001733 244.7861 115.2811 15.27505005 18757
STARLINK-32799          
1 62847U 25019U   25149.32902891 -.00001159  00000+0 -32618-4 0  9990
2 62847  42.9981 254.7240 0000818 272.2916  87.7842 15.27559117 18763
STARLINK-32781          
1 62848U 25019V   25149.34316188 -.00001633  00000+0 -49882-4 0  9999
2 62848  43.0013 254.8365 0000979 261.6063  98.4678 15.27560489 18764
STARLINK-32809          
1 62849U 25019W   25149.58029429 -.00001984  00000+0 -62637-4 0  9997
2 62849  42.9989 253.1710 0001615 276.5600  83.5067 15.27562403 18801
STARLINK-32868          
1 62854U 25022A   25149.84110334  .00000492  00000+0  22274-4 0  9996
2 62854  53.1597  10.7611 0001203  84.6093 275.5049 15.39622450 19200
